{
  "categoryName": "Breakfast",
  "categoryDescription": "Praesent viverra, urna eget adipiscing vehicula",
  "places": [
    {
      "placeName": "Einstein Stammhaus",
      "placeDescription": "empty",
      "placeUrl": "http://www.cafeeinstein.com/",
      "placeAddress": "Kurfürstenstraße 58, 10785 Berlin\n",
      "placeLocation": {
        "lat": "52.501888",
        "long": "13.354763"
      }
    },
    {
      "placeName": "Mogg & Melzer",
      "placeDescription": "empty",
      "placeUrl": "http://www.moggandmelzer.com/",
      "placeAddress": "Auguststraße 11, 10117 Berlin\n",
      "placeLocation": {
        "lat": "52.526543",
        "long": "13.39431"
      }
    },
    {
      "placeName": "KaffeeMitte",
      "placeDescription": "empty",
      "placeUrl": "http://kaffeemitte.de/",
      "placeAddress": "Weinmeisterstraße 9, 10178 Berlin\n",
      "placeLocation": {
        "lat": "52.525084",
        "long": "13.405947"
      }
    },
    {
      "placeName": "Salumeria Lamuri",
      "placeDescription": "empty",
      "placeUrl": "http://lasalumeria.wordpress.com/",
      "placeAddress": "Köpenicker Straße 183, 10997 Berlin\n",
      "placeLocation": {
        "lat": "52.503191",
        "long": "13.437838"
      }
    },
    {
      "placeName": "The Dairy",
      "placeDescription": "empty",
      "placeUrl": "http://www.thedairy.de/",
      "placeAddress": "Raumerstr 12, 10437 Berlin",
      "placeLocation": {
        "lat": "52.542372",
        "long": "13.419532"
      }
    },
    {
      "placeName": "Flamingo Fresh Food Bar",
      "placeDescription": "empty",
      "placeUrl": "http://www.flamingo-freshfood.de/",
      "placeAddress": "Neustadtische Kirchstrasse 8, 13189 Berlin",
      "placeLocation": {
        "lat": "52.519474",
        "long": "13.385325"
      }
    },
    {
      "placeName": "Fuchsbau",
      "placeDescription": "empty",
      "placeUrl": "-",
      "placeAddress": "Planufer 95, 10967 Berlin",
      "placeLocation": {
        "lat": "52.495803",
        "long": "13.418917"
      }
    },
    {
      "placeName": "Mathilda",
      "placeDescription": "empty",
      "placeUrl": "-",
      "placeAddress": "Graefestraße 12, 10967 Berlin",
      "placeLocation": {
        "lat": "52.49352",
        "long": "13.418158"
      }
    }
  ]
}
