{
  "categoryName": "Coffee",
  "categoryDescription": "Nunc elementum lectus lacus, quis blandit",
  "places": [
    {
      "placeName": "Bonanza Coffee Heroes",
      "placeDescription": "empty",
      "placeUrl": "http://www.bonanzacoffee.de/",
      "placeAddress": "Oderberger Straße 35, 10435 Berlin",
      "placeLocation": {
        "lat": "52.540006",
        "long": "13.405456"
      }
    },
    {
      "placeName": "Five Elephants",
      "placeDescription": "empty",
      "placeUrl": "http://www.fiveelephant.com/",
      "placeAddress": "Reichenberger Straße 101, 10999 Berlin",
      "placeLocation": {
        "lat": "52.493376",
        "long": "13.438299"
      }
    },
    {
      "placeName": "Katie's Blue Cat",
      "placeDescription": "empty",
      "placeUrl": "http://www.katiesbluecat.de/",
      "placeAddress": "Friedelstraße 31, 12047 Berlin",
      "placeLocation": {
        "lat": "52.493032",
        "long": "13.428262"
      }
    },
    {
      "placeName": "Double Eye",
      "placeDescription": "empty",
      "placeUrl": "http://www.doubleeye.de/",
      "placeAddress": "Akazienstraße 22, 10823 Berlin",
      "placeLocation": {
        "lat": "52.487906",
        "long": "13.354154"
      }
    },
    {
      "placeName": "Cafe CK",
      "placeDescription": "empty",
      "placeUrl": "http://cafeckberlin.com/",
      "placeAddress": "Marienburgerstraße 49, 10405 Berlin",
      "placeLocation": {
        "lat": "52.535477",
        "long": "13.422839"
      }
    },
    {
      "placeName": "Godshot",
      "placeDescription": "empty",
      "placeUrl": "http://godshot.de/",
      "placeAddress": "Immanuelkirchstraße 32, 10405 Berlin",
      "placeLocation": {
        "lat": "52.533014",
        "long": "13.422999"
      }
    },
    {
      "placeName": "Slörm",
      "placeDescription": "empty",
      "placeUrl": "http://sloerm.net/",
      "placeAddress": "Danzigerstraße 53, 10435 Berlin",
      "placeLocation": {
        "lat": "52.5399241",
        "long": "13.4207842"
      }
    },
    {
      "placeName": "the Barn",
      "placeDescription": "empty",
      "placeUrl": "http://barn.bigcartel.com/coffee-shop",
      "placeAddress": "Auguststraße 58, 10119 Berlin",
      "placeLocation": {
        "lat": "52.5274054",
        "long": "13.398246"
      }
    },
    {
      "placeName": "Luzia",
      "placeDescription": "empty",
      "placeUrl": "http://www.luzia.tc/",
      "placeAddress": "Oranierstraße 34, 10999 Berlin",
      "placeLocation": {
        "lat": "52.5016512",
        "long": "13.4181339"
      }
    },
    {
      "placeName": "Brezel Company ",
      "placeDescription": "empty",
      "placeUrl": "http://www.brezel-company-berlin.de/",
      "placeAddress": "Lenaustraße 10, 12047 Berlin",
      "placeLocation": {
        "lat": "52.4901291",
        "long": "13.4269727"
      }
    },
    {
      "placeName": "Companion Coffee",
      "placeDescription": "empty",
      "placeUrl": "http://companioncoffee.com/",
      "placeAddress": "Oranienstraße 24, 10999 Berlin",
      "placeLocation": {
        "lat": "52.5010436",
        "long": "13.419788"
      }
    },
    {
      "placeName": "Bullys Bakery",
      "placeDescription": "empty",
      "placeUrl": "http://www.bullysbakery.com/",
      "placeAddress": "Friedelstraße 7, 12047 Berlin",
      "placeLocation": {
        "lat": "52.4882626",
        "long": "13.4281182"
      }
    },
    {
      "placeName": "Zeit fur Brot",
      "placeDescription": "empty",
      "placeUrl": "http://www.zeitfuerbrot.com/",
      "placeAddress": "Alte Schönhauser Straße 4",
      "placeLocation": {
        "lat": "52.5279024",
        "long": "13.4085985"
      }
    },
    {
      "placeName": "Oslo Kaffebar",
      "placeDescription": "empty",
      "placeUrl": "http://www.oslokaffebar.com/",
      "placeAddress": "Eichendorffstraße 13, 10115 Berlin",
      "placeLocation": {
        "lat": "52.531152",
        "long": "13.386982"
      }
    },
    {
      "placeName": "Kaffeebar",
      "placeDescription": "empty",
      "placeUrl": "http://kaffeebar-berlin.com/",
      "placeAddress": "Graefestraße 8, 10967 Berlin",
      "placeLocation": {
        "lat": "52.494362",
        "long": "13.418801"
      }
    },
    {
      "placeName": "Antipodes",
      "placeDescription": "empty",
      "placeUrl": "https://www.facebook.com/pages/Antipodes/124448277614199",
      "placeAddress": "Fehrbelliner Straße 5, 10119 Berlin",
      "placeLocation": {
        "lat": "52.530928",
        "long": "13.409948"
      }
    },
    {
      "placeName": "Double Eye",
      "placeDescription": "empty",
      "placeUrl": "http://www.doubleeye.de/",
      "placeAddress": "Akazienstraße 22, 10823 Berlin",
      "placeLocation": {
        "lat": "52.48798",
        "long": "13.354292"
      }
    },
    {
      "placeName": "Café Bondi",
      "placeDescription": "empty",
      "placeUrl": "http://cafebondi.de/menu.html",
      "placeAddress": "Eichendorffstraße 6, 10115 Berlin",
      "placeLocation": {
        "lat": "52.530263",
        "long": "13.3875"
      }
    },
    {
      "placeName": "Aunt Benny",
      "placeDescription": "empty",
      "placeUrl": "http://auntbenny.com/",
      "placeAddress": "Oderstraße 7, 10247 Berlin",
      "placeLocation": {
        "lat": "52.510154",
        "long": "13.471121"
      }
    },
    {
      "placeName": "Schuchmanns",
      "placeDescription": "empty",
      "placeUrl": "https://www.facebook.com/schuchmanns.berlin",
      "placeAddress": "Paul-Lincke-Ufer 22, 10999 Berlin Kreuzberg",
      "placeLocation": {
        "lat": "52.49377",
        "long": "13.429124"
      }
    },
    {
      "placeName": "Chapter One",
      "placeDescription": "empty",
      "placeUrl": "http://www.chapter-one-coffee.com/",
      "placeAddress": "Mittenwalder Straße  30, 10961 Berlin",
      "placeLocation": {
        "lat": "52.489758",
        "long": "13.395971"
      }
    },
    {
      "placeName": "Giro Coffee Bar",
      "placeDescription": "empty",
      "placeUrl": "http://www.girocoffeebar.de/",
      "placeAddress": "Knesebeckstraße 5, 10623 Berlin",
      "placeLocation": {
        "lat": "52.510113",
        "long": "13.323028"
      }
    }
  ]
}
