{
  "categoryName": "Fashion",
  "categoryDescription": "Praesent lobortis metus eu nunc\n",
  "places": [
    {
      "placeName": "Das Neue Schwarz",
      "placeDescription": "empty",
      "placeUrl": "http://www.dasneueschwarz.de/",
      "placeAddress": "Mulackstrasse 38, 10119 Berlin",
      "placeLocation": {
        "lat": "52.527108",
        "long": "13.407258"
      }
    },
    {
      "placeName": "Civilist",
      "placeDescription": "empty",
      "placeUrl": "http://www.civilistberlin.com/",
      "placeAddress": "Brunnenstrasse 13, 10119 Berlin",
      "placeLocation": {
        "lat": "52.531616",
        "long": "13.39969"
      }
    },
    {
      "placeName": "Don’t Shoot The Messengers",
      "placeDescription": "empty",
      "placeUrl": "http://dont-shoot-the-messengers.com/",
      "placeAddress": "Zehdenickerstraße 25, 10119 Berlin",
      "placeLocation": {
        "lat": "52.530311",
        "long": "13.40634"
      }
    },
    {
      "placeName": "XVII Store",
      "placeDescription": "empty",
      "placeUrl": "http://delivery.XVII-store.com",
      "placeAddress": "Steinstrasse 17, 10119 Berlin",
      "placeLocation": {
        "lat": "52.527045",
        "long": "13.404824"
      }
    },
    {
      "placeName": "Temporary Showroom",
      "placeDescription": "empty",
      "placeUrl": "http://www.temporaryshowroom.com",
      "placeAddress": "Kastanienallee 36a, 10435 Berlin",
      "placeLocation": {
        "lat": "52.536118",
        "long": "13.407112"
      }
    },
    {
      "placeName": "Konzept86",
      "placeDescription": "empty",
      "placeUrl": "http://fiermanagement.com/",
      "placeAddress": "Skalitzer Straße 86, 10997 Berlin",
      "placeLocation": {
        "lat": "52.500083",
        "long": "13.436102"
      }
    },
    {
      "placeName": "Andreas Murkudis",
      "placeDescription": "empty",
      "placeUrl": "http://www.andreasmurkudis.com/",
      "placeAddress": "Potsdamer Strasse 81E, 10785 Berlin",
      "placeLocation": {
        "lat": "52.502187",
        "long": "13.364917"
      }
    },
    {
      "placeName": "Oukan",
      "placeDescription": "empty",
      "placeUrl": "http://www.oukan71.com/",
      "placeAddress": "Kronenstraße 71, 10117 Berlin",
      "placeLocation": {
        "lat": "52.511107",
        "long": "13.38775"
      }
    },
    {
      "placeName": "Yuu Shop",
      "placeDescription": "empty",
      "placeUrl": "http://www.yuu-shop.de/",
      "placeAddress": "Steinstraße 26, 10119 Berlin",
      "placeLocation": {
        "lat": "52.527023",
        "long": "13.40483"
      }
    },
    {
      "placeName": "No. 74\n\n",
      "placeDescription": "empty",
      "placeUrl": "http://no74-berlin.com",
      "placeAddress": "Torstrasse 74, 10119 Berlin",
      "placeLocation": {
        "lat": "52.529112",
        "long": "13.407282"
      }
    },
    {
      "placeName": "Sing Blackbird",
      "placeDescription": "empty",
      "placeUrl": "http://www.singblackbird.com",
      "placeAddress": "Sanderstraße 11, 12047 Berlin",
      "placeLocation": {
        "lat": "52.492449",
        "long": "13.426095"
      }
    },
    {
      "placeName": "Darklands",
      "placeDescription": "empty",
      "placeUrl": "http://www.darklandsberlin.com/",
      "placeAddress": "Heidestrasse 46-52, 10557 Berlin",
      "placeLocation": {
        "lat": "52.532009",
        "long": "13.366768"
      }
    },
    {
      "placeName": "Baerck",
      "placeDescription": "empty",
      "placeUrl": "http://www.baerck.net/",
      "placeAddress": "Mulackstraße 12, 10119 Berlin",
      "placeLocation": {
        "lat": "52.527482",
        "long": "13.405326"
      }
    },
    {
      "placeName": "SOTO",
      "placeDescription": "empty",
      "placeUrl": "http://www.sotostore.com",
      "placeAddress": "Torstrasse 72, 10119 Berlin",
      "placeLocation": {
        "lat": "52.529082",
        "long": "13.407449"
      }
    },
    {
      "placeName": "BUTTERFLYSOULFIRE Boutique",
      "placeDescription": "empty",
      "placeUrl": "http://www.butterflysoulfire.com",
      "placeAddress": "Mulackstraße 11, 10119 Berlin",
      "placeLocation": {
        "lat": "52.52745",
        "long": "13.405514"
      }
    },
    {
      "placeName": "LaLa Berlin",
      "placeDescription": "empty",
      "placeUrl": "http://www.lalaberlin.com",
      "placeAddress": "Mulackstraße 7, 10119 Berlin",
      "placeLocation": {
        "lat": "52.527318",
        "long": "13.406266"
      }
    },
    {
      "placeName": "Voo",
      "placeDescription": "empty",
      "placeUrl": "http://www.vooberlin.com/",
      "placeAddress": "Oranienstraße 24, 10999 Berlin Kreuzberg",
      "placeLocation": {
        "lat": "52.500838",
        "long": "13.420923"
      }
    },
    {
      "placeName": "konk",
      "placeDescription": "empty",
      "placeUrl": "http://www.konk-berlin.de/",
      "placeAddress": "Kleine Hamburger Straße 15, 10117 Berlin Mitte",
      "placeLocation": {
        "lat": "52.51778",
        "long": "13.38877"
      }
    },
    {
      "placeName": "Happy Shop",
      "placeDescription": "empty",
      "placeUrl": "http://happyshop-berlin.com/",
      "placeAddress": "Torstraße 67, 10119 Berlin Mitte",
      "placeLocation": {
        "lat": "52.529226",
        "long": "13.407588"
      }
    },
    {
      "placeName": "Starstyling",
      "placeDescription": "empty",
      "placeUrl": "http://www.starstyling.net/",
      "placeAddress": "Mulackstraße 4, 10119 Berlin Mitte",
      "placeLocation": {
        "lat": "52.527143",
        "long": "13.407177"
      }
    },
    {
      "placeName": "Schwarzhogerzeil II",
      "placeDescription": "empty",
      "placeUrl": "http://schwarzhogerzeil.de/",
      "placeAddress": "Mulackstraße 23, 10119 Berlin Mittte",
      "placeLocation": {
        "lat": "52.527671",
        "long": "13.404105"
      }
    }
  ]
}
